NORAD_CAT_ID,OBJECT_NAME,OBJECT_TYPE,EPOCH,MEAN_MOTION,ECCENTRICITY,INCLINATION,RA_OF_ASC_NODE,ARG_OF_PERICENTER,MEAN_ANOMALY,BSTAR,MEAN_MOTION_DOT,MEAN_MOTION_DDOT,TLE_LINE0,TLE_LINE1,TLE_LINE2,SEMIMAJOR_AXIS,PERIOD,APOGEE,PERIGEE,DECAYED
52362.0,STARLINK-3848,PAYLOAD,2022-12-16 23:27:09,15.08839953,0.0002924,53.2183,80.5727,36.5713,323.5478,-2.3359e-05,-6.6e-06,0.0,0 STARLINK-3848,1 52362U 22045AH  22350.97719726 -.00000660  00000-0 -23359-4 0  9991,2 52362  53.2183  80.5727 0002924  36.5713 323.5478 15.08839953 37972,6917.880999999999,95.438,541.768,537.7230000000002,0.0
52362.0,STARLINK-3848,PAYLOAD,2022-12-17 12:10:15,15.08837586,0.0003078999999999,53.2187,78.1945,38.4247,321.6964,1.1544000000000003e-05,-1.05e-06,0.0,0 STARLINK-3848,1 52362U 22045AH  22351.50711940 -.00000105  00000-0  11544-4 0  9997,2 52362  53.2187  78.1945 0003079  38.4247 321.6964 15.08837586 38055,6917.888000000001,95.438,541.883,537.623,0.0
52362.0,STARLINK-3848,PAYLOAD,2022-12-17 13:45:38,15.08841509,0.0002991,53.2179,77.8965,38.6222,321.4984,1.8841e-05,1.1e-07,0.0,0 STARLINK-3848,1 52362U 22045AH  22351.57335666  .00000011  00000-0  18841-4 0  9993,2 52362  53.2179  77.8965 0002991  38.6222 321.4984 15.08841509 38062,6917.876,95.437,541.81,537.672,0.0
52362.0,STARLINK-3848,PAYLOAD,2022-12-18 05:39:29,15.08836345,0.0002125,53.2173,74.9237,27.228,332.8823,4.2173e-05,3.83e-06,0.0,0 STARLINK-3848,1 52362U 22045AH  22352.23575699  .00000383  00000-0  42173-4 0  9996,2 52362  53.2173  74.9237 0002125  27.2280 332.8823 15.08836345 38164,6917.892,95.438,541.227,538.2869999999998,0.0
52362.0,STARLINK-3848,PAYLOAD,2022-12-18 12:01:02,15.08840167,0.0003115,53.2203,73.7357,34.1972,325.9221,-2.76e-06,-3.33e-06,0.0,0 STARLINK-3848,1 52362U 22045AH  22352.50071865 -.00000333  00000-0 -27600-5 0  9998,2 52362  53.2203  73.7357 0003115  34.1972 325.9221 15.08840167 38200,6917.88,95.438,541.9,537.59,0.0
52362.0,STARLINK-3848,PAYLOAD,2022-12-18 16:47:11,15.08834802,0.0002987,53.2186,72.8419,34.4001,325.7184,-4.4332e-05,-9.94e-06,0.0,0 STARLINK-3848,1 52362U 22045AH  22352.69944279 -.00000994  00000-0 -44332-4 0  9999,2 52362  53.2186  72.8419 0002987  34.4001 325.7184 15.08834802 38239,6917.896,95.438,541.828,537.695,0.0
52362.0,STARLINK-3848,PAYLOAD,2022-12-18 23:08:44,15.0883305,0.0003251,53.2177,71.6554,30.362,329.756,-1.1447e-06,-3.07e-06,0.0,0 STARLINK-3848,1 52362U 22045AH  22352.96440435 -.00000307  00000-0 -11447-5 0  9994,2 52362  53.2177  71.6554 0003251  30.3620 329.7560 15.08833050 38273,6917.901999999999,95.438,542.016,537.518,0.0
52362.0,STARLINK-3848,PAYLOAD,2022-12-19 16:37:58,15.0883966,0.000285,53.2183,68.3807,36.9193,323.1995,5.4164e-05,5.74e-06,0.0,0 STARLINK-3848,1 52362U 22045AH  22353.69304240  .00000574  00000-0  54164-4 0  9994,2 52362  53.2183  68.3807 0002850  36.9193 323.1995 15.08839660 38380,6917.880999999999,95.438,541.7180000000002,537.775,0.0
52362.0,STARLINK-3848,PAYLOAD,2022-12-20 11:42:35,15.08853316,0.0002991,53.2183,64.8132,31.5372,328.5799,0.0001269,1.732e-05,0.0,0 STARLINK-3848,1 52362U 22045AH  22354.48791050  .00001732  00000-0  12690-3 0  9995,2 52362  53.2183  64.8132 0002991  31.5372 328.5799 15.08853316 38507,6917.84,95.437,541.774,537.636,0.0
52362.0,STARLINK-3848,PAYLOAD,2022-12-20 14:53:22,15.08843898,0.0003037,53.2185,64.2208,31.3652,328.7521,9.7487e-05,1.263e-05,0.0,0 STARLINK-3848,1 52362U 22045AH  22354.62039792  .00001263  00000-0  97487-4 0  9996,2 52362  53.2185  64.2208 0003037  31.3652 328.7521 15.08843898 38529,6917.868,95.437,541.8340000000002,537.633,0.0
52362.0,STARLINK-3848,PAYLOAD,2022-12-21 05:11:51,15.08832803,0.0003077,53.2192,61.5405,34.7888,325.3304,4.814100000000001e-05,4.77e-06,0.0,0 STARLINK-3848,1 52362U 22045AH  22355.21656714  .00000477  00000-0  48141-4 0  9990,2 52362  53.2192  61.5405 0003077  34.7888 325.3304 15.08832803 38614,6917.901999999999,95.438,541.896,537.639,0.0
52362.0,STARLINK-3848,PAYLOAD,2022-12-21 11:33:24,15.08822851,0.0002659,53.2187,60.3505,33.3232,326.7927,-7.4184e-06,-4.06e-06,0.0,0 STARLINK-3848,1 52362U 22045AH  22355.48153568 -.00000406  00000-0 -74184-5 0  9999,2 52362  53.2187  60.3505 0002659  33.3232 326.7927 15.08822851 38651,6917.933000000001,95.439,541.637,537.9580000000002,0.0
52362.0,STARLINK-3848,PAYLOAD,2022-12-21 16:19:33,15.08830215,0.0002491,53.2177,59.4598,29.6415,330.4718,-3.1391e-05,-7.88e-06,0.0,0 STARLINK-3848,1 52362U 22045AH  22355.68025336 -.00000788  00000-0 -31391-4 0  9997,2 52362  53.2177  59.4598 0002491  29.6415 330.4718 15.08830215 38682,6917.91,95.438,541.499,538.052,0.0
52362.0,STARLINK-3848,PAYLOAD,2022-12-22 12:59:34,15.08840379,0.0002873,53.2181,55.595,27.3868,332.7275,-3.7542e-05,-8.86e-06,0.0,0 STARLINK-3848,1 52362U 22045AH  22356.54136780 -.00000886  00000-0 -37542-4 0  9992,2 52362  53.2181  55.5950 0002873  27.3868 332.7275 15.08840379 38817,6917.879,95.438,541.732,537.757,0.0
52362.0,STARLINK-3848,PAYLOAD,2022-12-22 14:34:57,15.08839641,0.0002931,53.2182,55.2977,27.1968,332.9177,-4.3274e-05,-9.77e-06,0.0,0 STARLINK-3848,1 52362U 22045AH  22356.60760710 -.00000977  00000-0 -43274-4 0  9995,2 52362  53.2182  55.2977 0002931  27.1968 332.9177 15.08839641 38822,6917.880999999999,95.438,541.774,537.719,0.0
52362.0,STARLINK-3848,PAYLOAD,2022-12-23 12:50:21,15.08829021,0.0002953,53.2186,51.1341,26.0452,334.0688,0.00014629,2.04e-05,0.0,0 STARLINK-3848,1 52362U 22045AH  22357.53497207  .00002040  00000-0  14629-3 0  9998,2 52362  53.2186  51.1341 0002953  26.0452 334.0688 15.08829021 38962,6917.9140000000025,95.438,541.822,537.736,0.0
52362.0,STARLINK-3848,PAYLOAD,2022-12-24 15:51:55,15.08835002,0.0003024,53.2182,46.0785,26.5028,333.6118,5.6688e-05,6.14e-06,0.0,0 STARLINK-3848,1 52362U 22045AH  22358.66105444  .00000614  00000-0  56688-4 0  9999,2 52362  53.2182  46.0785 0003024  26.5028 333.6118 15.08835002 39136,6917.896,95.438,541.8530000000002,537.669,0.0
52362.0,STARLINK-3848,PAYLOAD,2022-12-25 09:21:09,15.08841179,0.0003044,53.2182,42.8079,25.4479,334.6663,8.135899999999999e-05,1.007e-05,0.0,0 STARLINK-3848,1 52362U 22045AH  22359.38969022  .00001007  00000-0  81359-4 0  9999,2 52362  53.2182  42.8079 0003044  25.4479 334.6663 15.08841179 39246,6917.877,95.437,541.8480000000002,537.636,0.0
52362.0,STARLINK-3848,PAYLOAD,2022-12-25 20:28:50,15.08856738,0.0003069,53.2186,40.7274,21.8538,338.2584,-0.00016218,-2.87e-05,0.0,0 STARLINK-3848,1 52362U 22045AH  22359.85336550 -.00002870  00000-0 -16218-3 0  9997,2 52362  53.2186  40.7274 0003069  21.8538 338.2584 15.08856738 39314,6917.829000000002,95.436,541.817,537.571,0.0
52362.0,STARLINK-3848,PAYLOAD,2022-12-26 09:11:56,15.08836349,0.0003019,53.2188,38.3489,23.1325,336.9802,2.8902e-05,1.71e-06,0.0,0 STARLINK-3848,1 52362U 22045AH  22360.38329604  .00000171  00000-0  28902-4 0  9993,2 52362  53.2188  38.3489 0003019  23.1325 336.9802 15.08836349 39393,6917.892,95.438,541.845,537.668,0.0
52362.0,STARLINK-3848,PAYLOAD,2022-12-26 20:19:37,15.08846095,0.0002587,53.218,36.2672,15.5972,344.51,0.00012751,1.742e-05,0.0,0 STARLINK-3848,1 52362U 22045AH  22360.84696480  .00001742  00000-0  12751-3 0  9992,2 52362  53.2180  36.2672 0002587  15.5972 344.5100 15.08846095 39461,6917.861999999999,95.437,541.516,537.937,0.0
52362.0,STARLINK-3848,PAYLOAD,2022-12-27 09:02:42,15.08845579,0.0003132,53.2171,33.8884,25.779,334.3357,9.8684e-05,1.283e-05,0.0,0 STARLINK-3848,1 52362U 22045AH  22361.37688646  .00001283  00000-0  98684-4 0  9996,2 52362  53.2171  33.8884 0003132  25.7790 334.3357 15.08845579 39543,6917.863,95.437,541.895,537.562,0.0
52362.0,STARLINK-3848,PAYLOAD,2022-12-28 02:31:56,15.08852391,0.0003067,53.2178,30.6174,24.7681,335.3458,0.00018522,2.662e-05,0.0,0 STARLINK-3848,1 52362U 22045AH  22362.10551546  .00002662  00000-0  18522-3 0  9990,2 52362  53.2178  30.6174 0003067  24.7681 335.3458 15.08852391 39657,6917.843000000003,95.437,541.8290000000002,537.586,0.0
52362.0,STARLINK-3848,PAYLOAD,2022-12-28 12:04:16,15.08845982,0.00031,53.2186,28.8317,26.2631,333.8518,6.831e-05,7.99e-06,0.0,0 STARLINK-3848,1 52362U 22045AH  22362.50296357  .00000799  00000-0  68310-4 0  9990,2 52362  53.2186  28.8317 0003100  26.2631 333.8518 15.08845982 39719,6917.861999999999,95.437,541.872,537.5830000000002,0.0
52362.0,STARLINK-3848,PAYLOAD,2022-12-29 02:22:45,15.08835545,0.0002895,53.2173,26.1527,28.4969,331.6181,-6.5174e-05,-1.326e-05,0.0,0 STARLINK-3848,1 52362U 22045AH  22363.09913341 -.00001326  00000-0 -65174-4 0  9998,2 52362  53.2173  26.1527 0002895  28.4969 331.6181 15.08835545 39803,6917.894,95.438,541.762,537.756,0.0
52362.0,STARLINK-3848,PAYLOAD,2022-12-29 08:44:18,15.08828279,0.0003036,53.2191,24.968000000000004,27.4377,332.6775,-8.9417e-05,-1.711e-05,0.0,0 STARLINK-3848,1 52362U 22045AH  22363.36410087 -.00001711  00000-0 -89417-4 0  9991,2 52362  53.2191  24.9680 0003036  27.4377 332.6775 15.08828279 39849,6917.916,95.438,541.881,537.681,0.0
52362.0,STARLINK-3848,PAYLOAD,2022-12-30 11:45:51,15.08837698,0.0003207,53.2184,19.9118,22.4437,337.6695,5.0604e-05,5.17e-06,0.0,0 STARLINK-3848,1 52362U 22045AH  22364.49018087  .00000517  00000-0  50604-4 0  9997,2 52362  53.2184  19.9118 0003207  22.4437 337.6695 15.08837698 40015,6917.887,95.438,541.971,537.534,0.0
52362.0,STARLINK-3848,PAYLOAD,2022-12-31 05:15:05,15.0885173,0.0003166,53.2183,16.6405,24.9887,335.1257,0.00043549,6.652e-05,0.0,0 STARLINK-3848,1 52362U 22045AH  22365.21880909  .00006652  00000-0  43549-3 0  9993,2 52362  53.2183  16.6405 0003166  24.9887 335.1257 15.08851730 40129,6917.845,95.437,541.9,537.519,0.0
52362.0,STARLINK-3848,PAYLOAD,2022-12-31 13:12:01,15.08862808,0.0003217,53.2175,15.154000000000002,26.0855,334.0299,0.000567,8.753e-05,0.0,0 STARLINK-3848,1 52362U 22045AH  22365.55001321  .00008753  00000-0  56700-3 0  9990,2 52362  53.2175  15.1540 0003217  26.0855 334.0299 15.08862808 40176,6917.811,95.436,541.901,537.45,0.0
